[{"OBJECT_NAME":"STARLINK-31860","OBJECT_ID":"2024-084S","EPOCH":"2026-03-09T07:11:40.715520","MEAN_MOTION":15.27576635,"ECCENTRICITY":0.0001168,"INCLINATION":43.0038,"RA_OF_ASC_NODE":40.5216,"ARG_OF_PERICENTER":233.4402,"MEAN_ANOMALY":126.6342,"EPHEMERIS_TYPE":0,"CLASSIFICATION_TYPE":"U","NORAD_CAT_ID":59670,"ELEMENT_SET_NO":999,"REV_AT_EPOCH":10433,"BSTAR":1.1821712e-5,"MEAN_MOTION_DOT":6.3e-7,"MEAN_MOTION_DDOT":0},{"OBJECT_NAME":"SL-3 R\/B","OBJECT_ID":"1982-027B","EPOCH":"2026-03-09T22:44:40.208640","MEAN_MOTION":15.28335844,"ECCENTRICITY":0.00065199,"INCLINATION":81.188,"RA_OF_ASC_NODE":37.4466,"ARG_OF_PERICENTER":276.581,"MEAN_ANOMALY":83.4683,"EPHEMERIS_TYPE":0,"CLASSIFICATION_TYPE":"U","NORAD_CAT_ID":13121,"ELEMENT_SET_NO":999,"REV_AT_EPOCH":39859,"BSTAR":0.00030526741,"MEAN_MOTION_DOT":8.453e-5,"MEAN_MOTION_DDOT":0}]
